*******************************************************************************
Ephemeris / WWW_USER Mon Mar 10 08:41:50 2025 Pasadena, USA      / Horizons    
*******************************************************************************
Target body name: ASASSN (C/2017 O1)              {source: JPL#21}
Center body name: Earth (399)                     {source: DE441}
Center-site name: Mauna Kea
*******************************************************************************
Start time      : A.D. 2018-Sep-03 04:45:00.0000 UT      
Stop  time      : A.D. 2018-Sep-03 15:57:00.0000 UT      
Step-size       : 1 minutes
*******************************************************************************
Target pole/equ : undefined
Target radii    : undefined                                                    
Center geodetic : 204.5278, 19.8260847, 4.21024   {E-lon(deg),Lat(deg),Alt(km)}
Center cylindric: 204.5278, 6006.35451, 2151.0229 {E-lon(deg),Dxy(km),Dz(km)}
Center pole/equ : ITRF93                          {East-longitude positive}
Center radii    : 6378.137, 6378.137, 6356.752 km {Equator_a, b, pole_c}       
Target primary  : Sun
Vis. interferer : MOON (R_eq= 1737.400) km        {source: DE441}
Rel. light bend : Sun                             {source: DE441}
Rel. lght bnd GM: 1.3271E+11 km^3/s^2                                          
Small-body perts: Yes                             {source: SB441-N16}
Atmos refraction: NO (AIRLESS)
RA format       : HMS
Time format     : CAL 
Calendar mode   : Mixed Julian/Gregorian
RTS-only print  : NO       
EOP file        : eop.250307.p250603                                           
EOP coverage    : DATA-BASED 1962-JAN-20 TO 2025-MAR-07. PREDICTS-> 2025-JUN-02
Units conversion: 1 au= 149597870.700 km, c= 299792.458 km/s, 1 day= 86400.0 s 
Table cut-offs 1: Elevation (-90.0deg=NO ),Airmass (>38.000=NO), Daylight (YES)
Table cut-offs 2: Solar elongation (  0.0,180.0=NO ),Local Hour Angle( 0.0=NO )
Table cut-offs 3: RA/DEC angular rate (     0.0=NO )                           
*******************************************************************************
Initial IAU76/J2000 heliocentric ecliptic osculating elements (au, days, deg.):
  EPOCH=  2458039.5 ! 2017-Oct-13.0000000 (TDB)    RMSW= n.a.                  
   EC= .9964254882304144   QR= 1.498687032290766   TP= 2458041.2851755521      
   OM= 25.80948799039273   W= 20.90785287564418    IN= 39.84841297991522       
  Equivalent ICRF heliocentric cartesian coordinates (au, au/d):
   X= 1.103880574170232E+00  Y= 7.544591652134763E-01  Z= 6.774428678789283E-01
  VX=-1.240653547490291E-02 VY= 4.322571932715848E-03 VZ= 1.488380440184248E-02
Comet physical (GM= km^3/s^2; RAD= km):                                        
   GM= n.a.                RAD= n.a.                                           
   M1=  12.4     M2=  n.a.     k1=  8.75   k2= n.a.     PHCOF= n.a.            
*******************************************************************************
 Date__(UT)__HR:MN     R.A._________(ICRF)_________DEC
******************************************************
$$SOE
 2018-Sep-03 11:00  m  11 31 25.987006 +30 10 56.82756
 2018-Sep-03 11:01  m  11 31 26.031306 +30 10 56.48598
 2018-Sep-03 11:02  m  11 31 26.075607 +30 10 56.14441
 2018-Sep-03 11:03  m  11 31 26.119908 +30 10 55.80287
 2018-Sep-03 11:04  m  11 31 26.164209 +30 10 55.46134
 2018-Sep-03 11:05  m  11 31 26.208509 +30 10 55.11982
 2018-Sep-03 11:06  m  11 31 26.252810 +30 10 54.77833
 2018-Sep-03 11:07  m  11 31 26.297110 +30 10 54.43685
 2018-Sep-03 11:08  m  11 31 26.341410 +30 10 54.09539
 2018-Sep-03 11:09  m  11 31 26.385710 +30 10 53.75395
 2018-Sep-03 11:10  m  11 31 26.430010 +30 10 53.41252
 2018-Sep-03 11:11  m  11 31 26.474310 +30 10 53.07112
 2018-Sep-03 11:12  m  11 31 26.518609 +30 10 52.72973
 2018-Sep-03 11:13  m  11 31 26.562908 +30 10 52.38836
 2018-Sep-03 11:14  m  11 31 26.607207 +30 10 52.04700
 2018-Sep-03 11:15  m  11 31 26.651506 +30 10 51.70567
 2018-Sep-03 11:16  m  11 31 26.695805 +30 10 51.36435
 2018-Sep-03 11:17  m  11 31 26.740103 +30 10 51.02305
 2018-Sep-03 11:18  m  11 31 26.784401 +30 10 50.68177
 2018-Sep-03 11:19  m  11 31 26.828699 +30 10 50.34050
 2018-Sep-03 11:20  m  11 31 26.872996 +30 10 49.99926
 2018-Sep-03 11:21  m  11 31 26.917294 +30 10 49.65803
 2018-Sep-03 11:22  m  11 31 26.961590 +30 10 49.31681
 2018-Sep-03 11:23  m  11 31 27.005887 +30 10 48.97562
 2018-Sep-03 11:24  m  11 31 27.050183 +30 10 48.63444
 2018-Sep-03 11:25  m  11 31 27.094479 +30 10 48.29328
 2018-Sep-03 11:26  m  11 31 27.138775 +30 10 47.95214
 2018-Sep-03 11:27  m  11 31 27.183070 +30 10 47.61102
 2018-Sep-03 11:28  m  11 31 27.227365 +30 10 47.26991
 2018-Sep-03 11:29  m  11 31 27.271660 +30 10 46.92882
 2018-Sep-03 11:30  m  11 31 27.315954 +30 10 46.58775
 2018-Sep-03 11:31  m  11 31 27.360248 +30 10 46.24670
 2018-Sep-03 11:32  m  11 31 27.404541 +30 10 45.90566
 2018-Sep-03 11:33  m  11 31 27.448834 +30 10 45.56464
 2018-Sep-03 11:34  m  11 31 27.493127 +30 10 45.22364
 2018-Sep-03 11:35  m  11 31 27.537419 +30 10 44.88266
 2018-Sep-03 11:36  m  11 31 27.581711 +30 10 44.54169
 2018-Sep-03 11:37  m  11 31 27.626002 +30 10 44.20074
 2018-Sep-03 11:38  m  11 31 27.670293 +30 10 43.85981
 2018-Sep-03 11:39  m  11 31 27.714583 +30 10 43.51890
 2018-Sep-03 11:40  m  11 31 27.758873 +30 10 43.17801
 2018-Sep-03 11:41  m  11 31 27.803162 +30 10 42.83713
 2018-Sep-03 11:42  m  11 31 27.847451 +30 10 42.49627
 2018-Sep-03 11:43  m  11 31 27.891739 +30 10 42.15542
 2018-Sep-03 11:44  m  11 31 27.936027 +30 10 41.81460
 2018-Sep-03 11:45  m  11 31 27.980314 +30 10 41.47379
 2018-Sep-03 11:46  m  11 31 28.024601 +30 10 41.13300
 2018-Sep-03 11:47  m  11 31 28.068887 +30 10 40.79223
 2018-Sep-03 11:48  m  11 31 28.113173 +30 10 40.45147
 2018-Sep-03 11:49  m  11 31 28.157458 +30 10 40.11073
 2018-Sep-03 11:50  m  11 31 28.201742 +30 10 39.77001
 2018-Sep-03 11:51  m  11 31 28.246026 +30 10 39.42931
 2018-Sep-03 11:52  m  11 31 28.290309 +30 10 39.08862
 2018-Sep-03 11:53  m  11 31 28.334592 +30 10 38.74795
 2018-Sep-03 11:54  m  11 31 28.378874 +30 10 38.40730
 2018-Sep-03 11:55  m  11 31 28.423155 +30 10 38.06666
 2018-Sep-03 11:56  m  11 31 28.467436 +30 10 37.72605
 2018-Sep-03 11:57  m  11 31 28.511716 +30 10 37.38545
 2018-Sep-03 11:58  m  11 31 28.555995 +30 10 37.04486
 2018-Sep-03 11:59  m  11 31 28.600274 +30 10 36.70430
 2018-Sep-03 12:00  m  11 31 28.644552 +30 10 36.36375
 2018-Sep-03 12:01  m  11 31 28.688829 +30 10 36.02322
 2018-Sep-03 12:02  m  11 31 28.733106 +30 10 35.68271
 2018-Sep-03 12:03  m  11 31 28.777381 +30 10 35.34221
 2018-Sep-03 12:04  m  11 31 28.821657 +30 10 35.00173
 2018-Sep-03 12:05  m  11 31 28.865931 +30 10 34.66127
 2018-Sep-03 12:06  m  11 31 28.910205 +30 10 34.32082
 2018-Sep-03 12:07  m  11 31 28.954477 +30 10 33.98040
 2018-Sep-03 12:08  m  11 31 28.998749 +30 10 33.63998
 2018-Sep-03 12:09  m  11 31 29.043021 +30 10 33.29959
 2018-Sep-03 12:10  m  11 31 29.087291 +30 10 32.95921
 2018-Sep-03 12:11  m  11 31 29.131561 +30 10 32.61885
 2018-Sep-03 12:12  m  11 31 29.175830 +30 10 32.27851
 2018-Sep-03 12:13  m  11 31 29.220098 +30 10 31.93819
 2018-Sep-03 12:14  m  11 31 29.264365 +30 10 31.59788
 2018-Sep-03 12:15  m  11 31 29.308632 +30 10 31.25759
 2018-Sep-03 12:16  m  11 31 29.352897 +30 10 30.91731
 2018-Sep-03 12:17  m  11 31 29.397162 +30 10 30.57705
 2018-Sep-03 12:18  m  11 31 29.441426 +30 10 30.23681
 2018-Sep-03 12:19  m  11 31 29.485689 +30 10 29.89659
 2018-Sep-03 12:20  m  11 31 29.529951 +30 10 29.55638
 2018-Sep-03 12:21  m  11 31 29.574212 +30 10 29.21619
 2018-Sep-03 12:22  m  11 31 29.618472 +30 10 28.87602
 2018-Sep-03 12:23  m  11 31 29.662732 +30 10 28.53586
 2018-Sep-03 12:24  m  11 31 29.706990 +30 10 28.19572
 2018-Sep-03 12:25  m  11 31 29.751247 +30 10 27.85560
 2018-Sep-03 12:26  m  11 31 29.795504 +30 10 27.51549
 2018-Sep-03 12:27  m  11 31 29.839759 +30 10 27.17540
 2018-Sep-03 12:28  m  11 31 29.884014 +30 10 26.83533
 2018-Sep-03 12:29  m  11 31 29.928268 +30 10 26.49527
 2018-Sep-03 12:30  m  11 31 29.972520 +30 10 26.15523
 2018-Sep-03 12:31  m  11 31 30.016772 +30 10 25.81521
 2018-Sep-03 12:32  m  11 31 30.061022 +30 10 25.47520
 2018-Sep-03 12:33  m  11 31 30.105272 +30 10 25.13521
 2018-Sep-03 12:34  m  11 31 30.149520 +30 10 24.79524
 2018-Sep-03 12:35  m  11 31 30.193768 +30 10 24.45528
 2018-Sep-03 12:36  m  11 31 30.238014 +30 10 24.11534
 2018-Sep-03 12:37  m  11 31 30.282260 +30 10 23.77542
 2018-Sep-03 12:38  m  11 31 30.326504 +30 10 23.43551
 2018-Sep-03 12:39  m  11 31 30.370747 +30 10 23.09562
 2018-Sep-03 12:40  m  11 31 30.414990 +30 10 22.75574
 2018-Sep-03 12:41  m  11 31 30.459231 +30 10 22.41588
 2018-Sep-03 12:42  m  11 31 30.503471 +30 10 22.07604
 2018-Sep-03 12:43  m  11 31 30.547709 +30 10 21.73621
 2018-Sep-03 12:44  m  11 31 30.591947 +30 10 21.39640
 2018-Sep-03 12:45  m  11 31 30.636184 +30 10 21.05661
 2018-Sep-03 12:46  m  11 31 30.680419 +30 10 20.71683
 2018-Sep-03 12:47  m  11 31 30.724654 +30 10 20.37707
 2018-Sep-03 12:48  m  11 31 30.768887 +30 10 20.03732
 2018-Sep-03 12:49  m  11 31 30.813119 +30 10 19.69760
 2018-Sep-03 12:50  m  11 31 30.857349 +30 10 19.35788
 2018-Sep-03 12:51  m  11 31 30.901579 +30 10 19.01818
 2018-Sep-03 12:52  m  11 31 30.945807 +30 10 18.67850
 2018-Sep-03 12:53  m  11 31 30.990035 +30 10 18.33884
 2018-Sep-03 12:54  m  11 31 31.034260 +30 10 17.99919
 2018-Sep-03 12:55  m  11 31 31.078485 +30 10 17.65956
 2018-Sep-03 12:56  m  11 31 31.122709 +30 10 17.31994
 2018-Sep-03 12:57  m  11 31 31.166931 +30 10 16.98034
 2018-Sep-03 12:58  m  11 31 31.211152 +30 10 16.64075
 2018-Sep-03 12:59  m  11 31 31.255372 +30 10 16.30118
 2018-Sep-03 13:00  m  11 31 31.299590 +30 10 15.96163
 2018-Sep-03 13:01  m  11 31 31.343807 +30 10 15.62209
 2018-Sep-03 13:02  m  11 31 31.388023 +30 10 15.28256
 2018-Sep-03 13:03  m  11 31 31.432238 +30 10 14.94306
 2018-Sep-03 13:04  m  11 31 31.476451 +30 10 14.60357
